QIANFAN-49              
1 62250U 24232P   25265.66556248  .00000018  00000+0  86579-5 0  9998
2 62250  88.9984  49.4047 0015874  72.7435 287.5452 13.50972293 56896
QIANFAN-50              
1 62251U 24232Q   25265.69025214  .00000109  00000+0  15018-3 0  9995
2 62251  88.9989  49.4059 0017525  73.5923 286.7153 13.50967670 56927
QIANFAN-51              
1 62252U 24232R   25265.67375922  .00000094  00000+0  12624-3 0  9991
2 62252  88.9983  49.4064 0015072  77.3322 282.9513 13.50970097 56912
QIANFAN-52              
1 62253U 24232S   25265.62850111  .00000104  00000+0  14172-3 0  9997
2 62253  88.9980  49.2877 0016975  70.1446 290.1533 13.50972646 56994
QIANFAN-53              
1 62254U 24232T   25265.68200648  .00000098  00000+0  13297-3 0  9997
2 62254  88.9987  49.3807 0015867  71.2369 289.0503 13.50968471 56963
QIANFAN-54              
1 62255U 24232U   25265.64904553  .00000107  00000+0  14739-3 0  9993
2 62255  88.9979  49.0695 0003944 104.2112 255.9477 13.50970495 88464
QIANFAN-55              
1 62785U 25016A   25265.52682221  .00000071  00000+0  91169-4 0  9997
2 62785  88.9762 111.6012 0015961 219.2907 140.7087 13.50965018 36222
QIANFAN-56              
1 62786U 25016B   25265.54343019  .00000017  00000+0  71593-5 0  9999
2 62786  88.9734 111.4581 0014561 221.5384 138.4662 13.50972921 36270
